NORAD_CAT_ID,OBJECT_NAME,OBJECT_TYPE,EPOCH,MEAN_MOTION,ECCENTRICITY,INCLINATION,RA_OF_ASC_NODE,ARG_OF_PERICENTER,MEAN_ANOMALY,BSTAR,MEAN_MOTION_DOT,MEAN_MOTION_DDOT,TLE_LINE0,TLE_LINE1,TLE_LINE2,SEMIMAJOR_AXIS,PERIOD,APOGEE,PERIGEE,DECAYED
56495.0,STARLINK-5529,PAYLOAD,2023-12-10 22:00:01,14.98298013,0.0003087,70.0006,11.3177,267.484,332.5252,0.0055494,0.00066701,0.0,0 STARLINK-5529,1 56495U 23064AZ  23344.91668981  .00066701  00000-0  55494-2 0  9997,2 56495  70.0006  11.3177 0003087 267.4840 332.5252 14.98298013 33792,6950.292,96.109,574.302,570.011,0.0
56495.0,STARLINK-5529,PAYLOAD,2023-12-11 04:56:38,14.98327758,0.0002899,70.0001,10.5898,265.9218,94.161,-3.1454e-05,-4.68e-06,0.0,0 STARLINK-5529,1 56495U 23064AZ  23345.20599859 -.00000468  00000-0 -31454-4 0  9999,2 56495  70.0001  10.5898 0002899 265.9218  94.1610 14.98327758 33844,6950.2,96.107,574.08,570.05,0.0
56495.0,STARLINK-5529,PAYLOAD,2023-12-11 11:21:09,14.98353565,0.0002604,70.0002,9.9161,257.6577,102.429,-0.00041344,-5.025e-05,0.0,0 STARLINK-5529,1 56495U 23064AZ  23345.47303075 -.00005025  00000-0 -41344-3 0  9993,2 56495  70.0002   9.9161 0002604 257.6577 102.4290 14.98353565 33886,6950.12,96.105,573.795,570.175,0.0
56495.0,STARLINK-5529,PAYLOAD,2023-12-12 03:22:30,14.98331338,0.0002743,69.9996,8.2323,255.8528,104.2327,-1.5662e-06,-1.12e-06,0.0,0 STARLINK-5529,1 56495U 23064AZ  23346.14063610 -.00000112  00000-0 -15662-5 0  9994,2 56495  69.9996   8.2323 0002743 255.8528 104.2327 14.98331338 33983,6950.189,96.107,573.96,570.147,0.0
56495.0,STARLINK-5529,PAYLOAD,2023-12-12 11:23:11,14.98330105,0.0002805,69.9995,7.3902,259.8061,100.2782,-2.0524e-05,-3.38e-06,0.0,0 STARLINK-5529,1 56495U 23064AZ  23346.47443739 -.00000338  00000-0 -20524-4 0  9996,2 56495  69.9995   7.3902 0002805 259.8061 100.2782 14.98330105 33678,6950.193,96.107,574.007,570.108,0.0
56495.0,STARLINK-5529,PAYLOAD,2023-12-13 03:24:31,14.98332381,0.0002869,69.9992,5.7067,262.9945,97.0887,-1.4192e-06,-1.1e-06,0.0,0 STARLINK-5529,1 56495U 23064AZ  23347.14203441 -.00000110  00000-0 -14192-5 0  9998,2 56495  69.9992   5.7067 0002869 262.9945  97.0887 14.98332381 34134,6950.186,96.107,574.045,570.057,0.0
56495.0,STARLINK-5529,PAYLOAD,2023-12-13 11:25:12,14.98332258,0.0002881,69.9992,4.8649,264.1464,95.9366,-1.964e-06,-1.16e-06,0.0,0 STARLINK-5529,1 56495U 23064AZ  23347.47583396 -.00000116  00000-0 -19640-5 0  9993,2 56495  69.9992   4.8649 0002881 264.1464  95.9366 14.98332258 33821,6950.186,96.107,574.053,570.049,0.0
56495.0,STARLINK-5529,PAYLOAD,2023-12-14 03:26:32,14.98327974,0.0002852,69.9993,3.182,263.2644,96.819,-1.7558e-05,-3.02e-06,0.0,0 STARLINK-5529,1 56495U 23064AZ  23348.14343669 -.00000302  00000-0 -17558-4 0  9997,2 56495  69.9993   3.1820 0002852 263.2644  96.8190 14.98327974 34288,6950.199,96.107,574.046,570.082,0.0
56495.0,STARLINK-5529,PAYLOAD,2023-12-14 11:27:13,14.9832735,0.0002866,69.9993,2.3403,263.8581,96.2251,-2.4157e-05,-3.81e-06,0.0,0 STARLINK-5529,1 56495U 23064AZ  23348.47723766 -.00000381  00000-0 -24157-4 0  9993,2 56495  69.9993   2.3403 0002866 263.8581  96.2251 14.98327350 33972,6950.201,96.107,574.058,570.074,0.0
56495.0,STARLINK-5529,PAYLOAD,2023-12-15 05:04:41,14.98330457,0.0002869,69.9993,0.4884,268.3286,91.7544,-8.7587e-06,-1.97e-06,0.0,0 STARLINK-5529,1 56495U 23064AZ  23349.21159563 -.00000197  00000-0 -87587-5 0  9996,2 56495  69.9993   0.4884 0002869 268.3286  91.7544 14.98330457 34449,6950.191,96.107,574.05,570.062,0.0
56495.0,STARLINK-5529,PAYLOAD,2023-12-15 09:53:06,14.9833085,0.000285,69.9992,359.9834,267.9205,92.1627,-1.7336e-06,-1.14e-06,0.0,0 STARLINK-5529,1 56495U 23064AZ  23349.41187506 -.00000114  00000-0 -17336-5 0  9990,2 56495  69.9992 359.9834 0002850 267.9205  92.1627 14.98330850 34119,6950.19,96.107,574.036,570.074,0.0
56495.0,STARLINK-5529,PAYLOAD,2023-12-16 09:55:07,14.98328229,0.0002848,69.9992,357.4584,265.3709,94.7125,2.736e-05,2.33e-06,0.0,0 STARLINK-5529,1 56495U 23064AZ  23350.41327587  .00000233  00000-0  27360-4 0  9994,2 56495  69.9992 357.4584 0002848 265.3709  94.7125 14.98328229 34626,6950.198,96.107,574.043,570.084,0.0
56495.0,STARLINK-5529,PAYLOAD,2023-12-17 09:57:09,14.98310177,0.0002905,69.9992,354.9331,269.4799,90.6027,-0.00021391,-2.643e-05,0.0,0 STARLINK-5529,1 56495U 23064AZ  23351.41469513 -.00002643  00000-0 -21391-3 0  9997,2 56495  69.9992 354.9331 0002905 269.4799  90.6027 14.98310177 34771,6950.254,96.108,574.138,570.1,0.0
56495.0,STARLINK-5529,PAYLOAD,2023-12-18 03:34:38,14.98320777,0.0003578,69.9979,353.079,281.4044,78.6713,-8.6922e-05,-1.13e-05,0.0,0 STARLINK-5529,1 56495U 23064AZ  23352.14905116 -.00001130  00000-0 -86922-4 0  9994,2 56495  69.9979 353.0790 0003578 281.4044  78.6713 14.98320777 34886,6950.221,96.108,574.573,569.6,0.0
56495.0,STARLINK-5529,PAYLOAD,2023-12-18 09:59:09,14.98326981,0.0002999,69.9988,352.4071,268.712,91.3696,-2.2568e-06,-1.2e-06,0.0,0 STARLINK-5529,1 56495U 23064AZ  23352.41608536 -.00000120  00000-0 -22568-5 0  9995,2 56495  69.9988 352.4071 0002999 268.7120  91.3696 14.98326981 34920,6950.202,96.107,574.152,569.983,0.0
56495.0,STARLINK-5529,PAYLOAD,2023-12-19 10:01:09,14.98333999,0.0002993,69.9988,349.8816,271.4427,88.6389,0.00035132,4.102e-05,0.0,0 STARLINK-5529,1 56495U 23064AZ  23353.41747080  .00004102  00000-0  35132-3 0  9995,2 56495  69.9988 349.8816 0002993 271.4427  88.6389 14.98333999 35074,6950.181,96.107,574.126,569.965,0.0
56495.0,STARLINK-5529,PAYLOAD,2023-12-20 03:38:38,14.98331887,0.0002655,69.9996,348.0313,261.4921,98.5937,5.8119e-05,6.01e-06,0.0,0 STARLINK-5529,1 56495U 23064AZ  23354.15183928  .00000601  00000-0  58119-4 0  9993,2 56495  69.9996 348.0313 0002655 261.4921  98.5937 14.98331887 35184,6950.187,96.107,573.897,570.207,0.0
56495.0,STARLINK-5529,PAYLOAD,2023-12-20 10:03:11,14.98330518,0.0002366,70.0004,347.3588,250.2139,109.8765,6.0714e-05,6.32e-06,0.0,0 STARLINK-5529,1 56495U 23064AZ  23354.41887922  .00000632  00000-0  60714-4 0  9995,2 56495  70.0004 347.3588 0002366 250.2139 109.8765 14.98330518 34868,6950.191,96.107,573.701,570.412,0.0
56495.0,STARLINK-5529,PAYLOAD,2023-12-21 03:40:39,14.98341727,0.0002451,70.0003,345.5073,251.3104,108.7789,-6.3396e-05,-8.49e-06,0.0,0 STARLINK-5529,1 56495U 23064AZ  23355.15323116 -.00000849  00000-0 -63396-4 0  9998,2 56495  70.0003 345.5073 0002451 251.3104 108.7789 14.98341727 35336,6950.157,96.106,573.725,570.318,0.0
56495.0,STARLINK-5529,PAYLOAD,2023-12-21 10:05:10,14.98371994,0.0002206,69.9998,344.8333,248.8106,111.2818,-0.00058777,-7.106e-05,0.0,0 STARLINK-5529,1 56495U 23064AZ  23355.42026230 -.00007106  00000-0 -58777-3 0  9994,2 56495  69.9998 344.8333 0002206 248.8106 111.2818 14.98371994 35373,6950.063,96.104,573.461,570.395,0.0
56495.0,STARLINK-5529,PAYLOAD,2023-12-22 03:42:40,14.98328402,0.0002701,70.0005,342.984,253.2881,106.7982,-6.2581e-05,-8.4e-06,0.0,0 STARLINK-5529,1 56495U 23064AZ  23356.15463518 -.00000840  00000-0 -62581-4 0  9996,2 56495  70.0005 342.9840 0002701 253.2881 106.7982 14.98328402 35486,6950.198,96.107,573.94,570.186,0.0
56495.0,STARLINK-5529,PAYLOAD,2023-12-22 08:31:04,14.98328749,0.0002687,69.9998,342.4771,251.2301,108.8566,-6.6009e-05,-8.8e-06,0.0,0 STARLINK-5529,1 56495U 23064AZ  23356.35491455 -.00000880  00000-0 -66009-4 0  9992,2 56495  69.9998 342.4771 0002687 251.2301 108.8566 14.98328749 35159,6950.197,96.107,573.929,570.194,0.0
56495.0,STARLINK-5529,PAYLOAD,2023-12-23 03:44:41,14.98330229,0.0002811,69.9993,340.456,262.176,97.908,-5.3314e-05,-7.29e-06,0.0,0 STARLINK-5529,1 56495U 23064AZ  23357.15603364 -.00000729  00000-0 -53314-4 0  9992,2 56495  69.9993 340.4560 0002811 262.1760  97.9080 14.98330229 35635,6950.192,96.107,574.011,570.103,0.0
56495.0,STARLINK-5529,PAYLOAD,2023-12-23 08:33:05,14.98328206,0.0002848,69.9992,339.9496,268.4418,91.6414,4.1071e-05,3.97e-06,0.0,0 STARLINK-5529,1 56495U 23064AZ  23357.35631282  .00000397  00000-0  41071-4 0  9990,2 56495  69.9992 339.9496 0002848 268.4418  91.6414 14.98328206 35302,6950.198,96.107,574.043,570.084,0.0
56495.0,STARLINK-5529,PAYLOAD,2023-12-24 03:46:42,14.98323313,0.0002876,69.9994,337.9293,265.2684,94.8147,8.4259e-05,9.12e-06,0.0,0 STARLINK-5529,1 56495U 23064AZ  23358.15743439  .00000912  00000-0  84259-4 0  9995,2 56495  69.9994 337.9293 0002876 265.2684  94.8147 14.98323313 35782,6950.214,96.107,574.077,570.08,0.0
56495.0,STARLINK-5529,PAYLOAD,2023-12-24 08:35:06,14.98324304,0.0002776,69.9997,337.4245,264.7739,95.3103,0.00017817,2.033e-05,0.0,0 STARLINK-5529,1 56495U 23064AZ  23358.35771185  .00002033  00000-0  17817-3 0  9997,2 56495  69.9997 337.4245 0002776 264.7739  95.3103 14.98324304 35454,6950.211,96.107,574.005,570.146,0.0
56495.0,STARLINK-5529,PAYLOAD,2023-12-24 21:24:10,14.98328863,0.0002561,70.0001,336.0788,255.7907,104.2968,3.3125e-05,3.02e-06,0.0,0 STARLINK-5529,1 56495U 23064AZ  23358.89179253  .00000302  00000-0  33125-4 0  9992,2 56495  70.0001 336.0788 0002561 255.7907 104.2968 14.98328863 35531,6950.196,96.107,573.841,570.281,0.0
56495.0,STARLINK-5529,PAYLOAD,2023-12-25 03:48:43,14.98330061,0.0002674,70.0001,335.407,254.7344,105.352,2.0581e-05,1.53e-06,0.0,0 STARLINK-5529,1 56495U 23064AZ  23359.15883184  .00000153  00000-0  20581-4 0  9993,2 56495  70.0001 335.4070 0002674 254.7344 105.3520 14.98330061 35930,6950.193,96.107,573.916,570.199,0.0
56495.0,STARLINK-5529,PAYLOAD,2023-12-25 08:37:07,14.98331669,0.0002592,70.0001,334.9002,267.445,92.6413,5.2789e-05,5.37e-06,0.0,0 STARLINK-5529,1 56495U 23064AZ  23359.35911047  .00000537  00000-0  52789-4 0  9996,2 56495  70.0001 334.9002 0002592 267.4450  92.6413 14.98331669 35605,6950.188,96.107,573.854,570.251,0.0
56495.0,STARLINK-5529,PAYLOAD,2023-12-26 03:50:44,14.98327757,0.0002705,70.0,332.8798,271.3828,88.7021,-3.3023e-05,-4.87e-06,0.0,0 STARLINK-5529,1 56495U 23064AZ  23360.16023488 -.00000487  00000-0 -33023-4 0  9996,2 56495  70.0000 332.8798 0002705 271.3828  88.7021 14.98327757 36089,6950.2,96.107,573.945,570.185,0.0
